[{"OBJECT_NAME":"HAWK-11C","OBJECT_ID":"2024-247E","EPOCH":"2026-03-09T12:17:35.407968","MEAN_MOTION":15.2884802,"ECCENTRICITY":0.00059001,"INCLINATION":45.0045,"RA_OF_ASC_NODE":114.8762,"ARG_OF_PERICENTER":329.704,"MEAN_ANOMALY":30.3502,"EPHEMERIS_TYPE":0,"CLASSIFICATION_TYPE":"U","NORAD_CAT_ID":62381,"ELEMENT_SET_NO":999,"REV_AT_EPOCH":6774,"BSTAR":0.00033290115,"MEAN_MOTION_DOT":9.223e-5,"MEAN_MOTION_DDOT":0},{"OBJECT_NAME":"STARLINK-35410","OBJECT_ID":"2025-232V","EPOCH":"2026-03-09T09:12:33.573888","MEAN_MOTION":15.30201096,"ECCENTRICITY":0.00012382,"INCLINATION":53.1578,"RA_OF_ASC_NODE":104.9751,"ARG_OF_PERICENTER":87.7374,"MEAN_ANOMALY":272.3769,"EPHEMERIS_TYPE":0,"CLASSIFICATION_TYPE":"U","NORAD_CAT_ID":66024,"ELEMENT_SET_NO":999,"REV_AT_EPOCH":2339,"BSTAR":0.00054528187,"MEAN_MOTION_DOT":0.00015825,"MEAN_MOTION_DDOT":0}]
